[{"OBJECT_NAME":"GEESAT-2 11","OBJECT_ID":"2024-023L","EPOCH":"2026-03-09T21:59:16.445184","MEAN_MOTION":14.82910612,"ECCENTRICITY":0.00193128,"INCLINATION":49.9984,"RA_OF_ASC_NODE":93.6107,"ARG_OF_PERICENTER":92.0553,"MEAN_ANOMALY":268.2597,"EPHEMERIS_TYPE":0,"CLASSIFICATION_TYPE":"U","NORAD_CAT_ID":58915,"ELEMENT_SET_NO":999,"REV_AT_EPOCH":11418,"BSTAR":0.00034984273,"MEAN_MOTION_DOT":2.647e-5,"MEAN_MOTION_DDOT":0},{"OBJECT_NAME":"KUIPER-00123","OBJECT_ID":"2025-228F","EPOCH":"2026-03-09T05:16:41.356704","MEAN_MOTION":14.79954051,"ECCENTRICITY":4.843e-5,"INCLINATION":51.9011,"RA_OF_ASC_NODE":5.169,"ARG_OF_PERICENTER":341.7686,"MEAN_ANOMALY":18.3259,"EPHEMERIS_TYPE":0,"CLASSIFICATION_TYPE":"U","NORAD_CAT_ID":65952,"ELEMENT_SET_NO":999,"REV_AT_EPOCH":2312,"BSTAR":-0.0012580982,"MEAN_MOTION_DOT":-9.803e-5,"MEAN_MOTION_DDOT":0}]
